[{"OBJECT_NAME":"NUSAT-35 (WILLIAMINA)","OBJECT_ID":"2023-001AR","EPOCH":"2026-03-09T22:28:40.425600","MEAN_MOTION":15.3245616,"ECCENTRICITY":0.00136635,"INCLINATION":97.1993,"RA_OF_ASC_NODE":124.278,"ARG_OF_PERICENTER":97.0313,"MEAN_ANOMALY":263.2484,"EPHEMERIS_TYPE":0,"CLASSIFICATION_TYPE":"U","NORAD_CAT_ID":55048,"ELEMENT_SET_NO":999,"REV_AT_EPOCH":17719,"BSTAR":0.00053479647,"MEAN_MOTION_DOT":0.0001675,"MEAN_MOTION_DDOT":0},{"OBJECT_NAME":"STARLINK-34827","OBJECT_ID":"2025-161Z","EPOCH":"2026-03-09T21:10:48.969408","MEAN_MOTION":15.30204668,"ECCENTRICITY":8.557e-5,"INCLINATION":53.1603,"RA_OF_ASC_NODE":292.9958,"ARG_OF_PERICENTER":129.5295,"MEAN_ANOMALY":230.5781,"EPHEMERIS_TYPE":0,"CLASSIFICATION_TYPE":"U","NORAD_CAT_ID":65038,"ELEMENT_SET_NO":999,"REV_AT_EPOCH":3426,"BSTAR":0.0008725664,"MEAN_MOTION_DOT":0.00025576,"MEAN_MOTION_DDOT":0}]
